From: horizons@ssd.jpl.nasa.gov (Horizons Ephemeris System)
Subject: [Horizons] SMALL BODY #C(500@10)_T(34D/Gale) (1/1)
Date: March 1, 2021 at 1:22:49 PM PST

Automated mail xmit by MAIL_REQUEST, PID= 2301 Mon Mar  1 13:22:49 2021
++++++++++++++++++++++++++++++++ (part 1 of 1)  +++++++++++++++++++++++++++++++
*******************************************************************************
JPL/HORIZONS                      34D/Gale                 2021-Mar-01 13:22:48
Rec #:90000439                  Soln.date: -              # obs: 47 (1927-1938)

IAU76/J2000 helio. ecliptic osc. elements (au, days, deg., period=Julian yrs):

 EPOCH=  2429080.5 ! 1938-Jul-01.0000000 (TDB)    RMSW= n.a.
  EC= .760719             QR= 1.182907            TP= 2429067.9832000001
  OM= 67.9235             W= 209.1572             IN= 11.7281
  A= 4.943589336386927    MA= 1.12236420277449    ADIST= 8.704271672773853
  PER= 10.991875343433    N= .089668619           ANGMOM= .024825715
  DAN= 6.20472            DDN= 1.25142            L= 276.569261
  B= -5.683516                                    TP= 1938-Jun-18.4832000001

Comet physical (GM= km^3/s^2; RAD= km):
  GM= n.a.                RAD= n.a.
  M1=  10.5     M2=  n.a.     k1=  20.    k2= n.a.     PHCOF= n.a.

COMET comments 
1: soln ref.= SAO/1938
2: k1=20.0;2008 SAO Comet Catalog
*******************************************************************************


*******************************************************************************
Ephemeris / MAIL_REQUEST Mon Mar  1 13:22:49 2021 Pasadena, USA  / Horizons
*******************************************************************************
Target body name: 34D/Gale                        {source: DASTCOM}
Center body name: Sun (10)                        {source: DE431}
Center-site name: BODY CENTER
*******************************************************************************
Start time      : A.D. 1990-Jan-01 00:00:00.0000 TDB
Stop  time      : A.D. 2020-Dec-31 00:00:00.0000 TDB
Step-size       : 10080 minutes
*******************************************************************************
Center geodetic : 0.00000000,0.00000000,0.0000000 {E-lon(deg),Lat(deg),Alt(km)}
Center cylindric: 0.00000000,0.00000000,0.0000000 {E-lon(deg),Dxy(km),Dz(km)}
Center radii    : 696000.0 x 696000.0 x 696000.0 k{Equator, meridian, pole}    
Small perturbers: Yes                             {source: SB431-N16}
Output units    : AU-D
Output type     : GEOMETRIC cartesian states
Output format   : 6 (LT, range, and range-rate)
Reference frame : Ecliptic of J2000.0
*******************************************************************************
Initial IAU76/J2000 heliocentric ecliptic osculating elements (au, days, deg.):
 EPOCH=  2429080.5 ! 1938-Jul-01.0000000 (TDB)    RMSW= n.a.                  
  EC= .760719             QR= 1.182907            TP= 2429067.9832000001      
  OM= 67.9235             W= 209.1572             IN= 11.7281                 
 Equivalent ICRF heliocentric equatorial cartesian coordinates (au, au/d):
  X= 3.878582342082493E-01  Y=-9.623291828813786E-01  Z=-5.937193113641984E-01
 VX= 1.989404107696208E-02 VY= 6.194509494676322E-03 VZ=-1.037570270065197E-03
Comet physical (GM= km^3/s^2; RAD= km):                                        
  GM= n.a.                RAD= n.a.                                           
  M1=  10.5     M2=  n.a.     k1=  20.    k2= n.a.     PHCOF= n.a.            
*******************************************************************************
           JDTDB,            Calendar Date (TDB),                     LT,                     RG,                     RR,
**************************************************************************************************************************
$$SOE
2451042.500000000, A.D. 1998-Aug-17 00:00:00.0000,  5.105021574647820E-02,  8.839070853364687E+00, -2.458393004921085E-05,
2451049.500000000, A.D. 1998-Aug-24 00:00:00.0000,  5.104881575582267E-02,  8.838828452496889E+00, -4.467392021538786E-05,
2451056.500000000, A.D. 1998-Aug-31 00:00:00.0000,  5.104660349013606E-02,  8.838445410567203E+00, -6.476729722315157E-05,
2451063.500000000, A.D. 1998-Sep-07 00:00:00.0000,  5.104357879361762E-02,  8.837921700599567E+00, -8.486475540789853E-05,
2451070.500000000, A.D. 1998-Sep-14 00:00:00.0000,  5.103974152213229E-02,  8.837257297637768E+00, -1.049649298388535E-04,
2451077.500000000, A.D. 1998-Sep-21 00:00:00.0000,  5.103509160304123E-02,  8.836452189104783E+00, -1.250662468190078E-04,
2451084.500000000, A.D. 1998-Sep-28 00:00:00.0000,  5.102962898974676E-02,  8.835506366932471E+00, -1.451689738493979E-04,
2451091.500000000, A.D. 1998-Oct-05 00:00:00.0000,  5.102335360594454E-02,  8.834419817909145E+00, -1.652740784198495E-04,
2451098.500000000, A.D. 1998-Oct-12 00:00:00.0000,  5.101626533735477E-02,  8.833192522247874E+00, -1.853824298200384E-04,
2451105.500000000, A.D. 1998-Oct-19 00:00:00.0000,  5.100836403755952E-02,  8.831824454597177E+00, -2.054947632998401E-04,
2451112.500000000, A.D. 1998-Oct-26 00:00:00.0000,  5.099964953155386E-02,  8.830315584655887E+00, -2.256117716404689E-04,
2451119.500000000, A.D. 1998-Nov-02 00:00:00.0000,  5.099012161596776E-02,  8.828665877211584E+00, -2.457341755652746E-04,
2451126.500000000, A.D. 1998-Nov-09 00:00:00.0000,  5.097978005661830E-02,  8.826875291716739E+00, -2.658627925036623E-04,
2451133.500000000, A.D. 1998-Nov-16 00:00:00.0000,  5.096862458244760E-02,  8.824943781239149E+00, -2.859986567875363E-04,
2451140.500000000, A.D. 1998-Nov-23 00:00:00.0000,  5.095665487286112E-02,  8.822871290269577E+00, -3.061432172485488E-04,
2451147.500000000, A.D. 1998-Nov-30 00:00:00.0000,  5.094387054061278E-02,  8.820657751758455E+00, -3.262982123957614E-04,
2451154.500000000, A.D. 1998-Dec-07 00:00:00.0000,  5.093027114592591E-02,  8.818303089560805E+00, -3.464641454835056E-04,
2451161.500000000, A.D. 1998-Dec-14 00:00:00.0000,  5.091585627188056E-02,  8.815807231489172E+00, -3.666396641960514E-04,
2451168.500000000, A.D. 1998-Dec-21 00:00:00.0000,  5.090062554446088E-02,  8.813170112784734E+00, -3.868244407355039E-04,
2451175.500000000, A.D. 1998-Dec-28 00:00:00.0000,  5.088457856873433E-02,  8.810391665067032E+00, -4.070196101113788E-04,
2451182.500000000, A.D. 1999-Jan-04 00:00:00.0000,  5.086771489791347E-02,  8.807471810977212E+00, -4.272264555874810E-04,
2451189.500000000, A.D. 1999-Jan-11 00:00:00.0000,  5.085003403811850E-02,  8.804410465002647E+00, -4.474460172986073E-04,
2451196.500000000, A.D. 1999-Jan-18 00:00:00.0000,  5.083153545764039E-02,  8.801207535080767E+00, -4.676791413991927E-04,
2451203.500000000, A.D. 1999-Jan-25 00:00:00.0000,  5.081221859310150E-02,  8.797862923665765E+00, -4.879265597527613E-04,
2451210.500000000, A.D. 1999-Feb-01 00:00:00.0000,  5.079208285276333E-02,  8.794376528301289E+00, -5.081889545799264E-04,
2451217.500000000, A.D. 1999-Feb-08 00:00:00.0000,  5.077112761693646E-02,  8.790748241691443E+00, -5.284670458822728E-04,
2451224.500000000, A.D. 1999-Feb-15 00:00:00.0000,  5.074935223341064E-02,  8.786977950909524E+00, -5.487617592108908E-04,
2451231.500000000, A.D. 1999-Feb-22 00:00:00.0000,  5.072675600485708E-02,  8.783065535216796E+00, -5.690744093149361E-04,
2451238.500000000, A.D. 1999-Mar-01 00:00:00.0000,  5.070333818019507E-02,  8.779010864567663E+00, -5.894060955305793E-04,
2451245.500000000, A.D. 1999-Mar-08 00:00:00.0000,  5.067909800013751E-02,  8.774813807495637E+00, -6.097559065353749E-04,
2451252.500000000, A.D. 1999-Mar-15 00:00:00.0000,  5.065403477106759E-02,  8.770474243904696E+00, -6.301220705852828E-04,
2451259.500000000, A.D. 1999-Mar-22 00:00:00.0000,  5.062814783946511E-02,  8.765992060641324E+00, -6.505044870325111E-04,
2451266.500000000, A.D. 1999-Mar-29 00:00:00.0000,  5.060143653350926E-02,  8.761367141383344E+00, -6.709039122777125E-04,
2451273.500000000, A.D. 1999-Apr-05 00:00:00.0000,  5.057390015143408E-02,  8.756599364623762E+00, -6.913210073224353E-04,
2451280.500000000, A.D. 1999-Apr-12 00:00:00.0000,  5.054553796896991E-02,  8.751688604959163E+00, -7.117562370660107E-04,
2451287.500000000, A.D. 1999-Apr-19 00:00:00.0000,  5.051634924537660E-02,  8.746634734134370E+00, -7.322099681850428E-04,
2451294.500000000, A.D. 1999-Apr-26 00:00:00.0000,  5.048633322553599E-02,  8.741437621404728E+00, -7.526825587860728E-04,
2451301.500000000, A.D. 1999-May-03 00:00:00.0000,  5.045548913862107E-02,  8.736097133305670E+00, -7.731744440118800E-04,
2451308.500000000, A.D. 1999-May-10 00:00:00.0000,  5.042381619259955E-02,  8.730613132701064E+00, -7.936862666949878E-04,
2451315.500000000, A.D. 1999-May-17 00:00:00.0000,  5.039131356162154E-02,  8.724985476599429E+00, -8.142190985886774E-04,
2451322.500000000, A.D. 1999-May-24 00:00:00.0000,  5.035798036592021E-02,  8.719214012673861E+00, -8.347744725142565E-04,
2451329.500000000, A.D. 1999-May-31 00:00:00.0000,  5.032381567324727E-02,  8.713298579510576E+00, -8.553530954243136E-04,
2451336.500000000, A.D. 1999-Jun-07 00:00:00.0000,  5.028881856581555E-02,  8.707239018199653E+00, -8.759536714455840E-04,
2451343.500000000, A.D. 1999-Jun-14 00:00:00.0000,  5.025298817673994E-02,  8.701035178644581E+00, -8.965755137133886E-04,
2451350.500000000, A.D. 1999-Jun-21 00:00:00.0000,  5.021632362925060E-02,  8.694686909037371E+00, -9.172196366068487E-04,
2451357.500000000, A.D. 1999-Jun-28 00:00:00.0000,  5.017882399365863E-02,  8.688194048407382E+00, -9.378874640376535E-04,
2451364.500000000, A.D. 1999-Jul-05 00:00:00.0000,  5.014048828493795E-02,  8.681556426202631E+00, -9.585802893929671E-04,
2451371.500000000, A.D. 1999-Jul-12 00:00:00.0000,  5.010131546853294E-02,  8.674773863295371E+00, -9.792992818404723E-04,
2451378.500000000, A.D. 1999-Jul-19 00:00:00.0000,  5.006130446391373E-02,  8.667846172597651E+00, -1.000045556838970E-03,
2451385.500000000, A.D. 1999-Jul-26 00:00:00.0000,  5.002045414559237E-02,  8.660773159237275E+00, -1.020820232170572E-03,
